NORAD_CAT_ID,OBJECT_NAME,OBJECT_TYPE,EPOCH,MEAN_MOTION,ECCENTRICITY,INCLINATION,RA_OF_ASC_NODE,ARG_OF_PERICENTER,MEAN_ANOMALY,BSTAR,MEAN_MOTION_DOT,MEAN_MOTION_DDOT,TLE_LINE0,TLE_LINE1,TLE_LINE2,SEMIMAJOR_AXIS,PERIOD,APOGEE,PERIGEE,DECAYED
51771.0,STARLINK-3614,PAYLOAD,2023-03-17 13:13:57,15.0882144,0.0001646,53.2167,183.965,102.5544,257.5632,7.2835e-05,8.71e-06,0.0,0 STARLINK-3614,1 51771U 22017D   23076.55136410  .00000871  00000-0  72835-4 0  9991,2 51771  53.2167 183.9650 0001646 102.5544 257.5632 15.08821440 58339,6917.937,95.439,540.941,538.663,0.0
51771.0,STARLINK-3614,PAYLOAD,2023-03-18 00:21:40,15.08835472,0.0001154,53.2137,181.8801,100.1894,259.9228,0.00075,0.00011667,0.0,0 STARLINK-3614,1 51771U 22017D   23077.01504883  .00011667  00000-0  75000-3 0  9997,2 51771  53.2137 181.8801 0001154 100.1894 259.9228 15.08835472 59852,6917.894,95.438,540.558,538.961,0.0
51771.0,STARLINK-3614,PAYLOAD,2023-03-18 13:04:44,15.08874945,0.0001111,53.2133,179.5022,85.7332,274.3787,0.0012323,0.00019397,0.0,0 STARLINK-3614,1 51771U 22017D   23077.54495393  .00019397  00000-0  12323-2 0  9996,2 51771  53.2133 179.5022 0001111  85.7332 274.3787 15.08874945 59933,6917.774,95.435,540.407,538.87,0.0
51771.0,STARLINK-3614,PAYLOAD,2023-03-18 17:50:52,15.08896604,0.000119,53.2139,178.6103,84.3213,275.7915,0.001673,0.0002648,0.0,0 STARLINK-3614,1 51771U 22017D   23077.74366637  .00026480  00000-0  16730-2 0  9993,2 51771  53.2139 178.6103 0001190  84.3213 275.7915 15.08896604 59966,6917.707,95.434,540.396,538.749,0.0
51771.0,STARLINK-3614,PAYLOAD,2023-03-19 06:33:58,15.0885899,0.0001718,53.2136,176.231,103.6553,256.463,0.00070113,0.00010894,0.0,0 STARLINK-3614,1 51771U 22017D   23078.27358830  .00010894  00000-0  70113-3 0  9996,2 51771  53.2136 176.2310 0001718 103.6553 256.4630 15.08858990 60042,6917.822,95.436,540.876,538.499,0.0
51771.0,STARLINK-3614,PAYLOAD,2023-03-19 12:55:30,15.08855919,0.0001295,53.2148,175.0426,102.4122,257.7015,0.0015616,0.00024663,0.0,0 STARLINK-3614,1 51771U 22017D   23078.53854741  .00024663  00000-0  15616-2 0  9992,2 51771  53.2148 175.0426 0001295 102.4122 257.7015 15.08855919 58630,6917.832,95.437,540.593,538.801,0.0
51771.0,STARLINK-3614,PAYLOAD,2023-03-19 16:06:16,15.08855147,0.0001519,53.2145,174.4469,107.7254,252.3904,0.0014034,0.00022127,0.0,0 STARLINK-3614,1 51771U 22017D   23078.67102659  .00022127  00000-0  14034-2 0  9997,2 51771  53.2145 174.4469 0001519 107.7254 252.3904 15.08855147 58653,6917.834,95.437,540.75,538.648,0.0
51771.0,STARLINK-3614,PAYLOAD,2023-03-20 06:24:45,15.08850272,0.0001375,53.2145,171.7702,98.821,261.2938,0.0013757,0.0002168,0.0,0 STARLINK-3614,1 51771U 22017D   23079.26719121  .00021680  00000-0  13757-2 0  9995,2 51771  53.2145 171.7702 0001375  98.8210 261.2938 15.08850272 60197,6917.849,95.437,540.665,538.763,0.0
51771.0,STARLINK-3614,PAYLOAD,2023-03-20 12:46:17,15.08846826,0.000131,53.2156,170.5815,93.1629,266.9513,0.00088037,0.00013753,0.0,0 STARLINK-3614,1 51771U 22017D   23079.53215094  .00013753  00000-0  88037-3 0  9991,2 51771  53.2156 170.5815 0001310  93.1629 266.9513 15.08846826 60238,6917.86,95.437,540.631,538.818,0.0
51771.0,STARLINK-3614,PAYLOAD,2023-03-21 04:40:09,15.08850459,0.0001536,53.2158,167.6097,94.342,265.7747,0.00062031,9.601e-05,0.0,0 STARLINK-3614,1 51771U 22017D   23080.19454957  .00009601  00000-0  62031-3 0  9991,2 51771  53.2158 167.6097 0001536  94.3420 265.7747 15.08850459 60335,6917.848,95.437,540.776,538.651,0.0
51771.0,STARLINK-3614,PAYLOAD,2023-03-21 12:37:04,15.08858082,0.0001526,53.2159,166.1224,100.3506,259.7658,0.00064816,0.00010048,0.0,0 STARLINK-3614,1 51771U 22017D   23080.52574538  .00010048  00000-0  64816-3 0  9996,2 51771  53.2159 166.1224 0001526 100.3506 259.7658 15.08858082 58931,6917.825,95.436,540.746,538.634,0.0
51771.0,STARLINK-3614,PAYLOAD,2023-03-21 22:09:23,15.0884945,0.0001491,53.216,164.3369,106.9735,253.142,0.00020548,2.985e-05,0.0,0 STARLINK-3614,1 51771U 22017D   23080.92318516  .00002985  00000-0  20548-3 0  9997,2 51771  53.2160 164.3369 0001491 106.9735 253.1420 15.08849450 58990,6917.852,95.437,540.748,538.685,0.0
51771.0,STARLINK-3614,PAYLOAD,2023-03-22 06:06:19,15.08840697,0.0001965,53.2179,162.854,121.4827,238.6357,-5.8799e-05,-1.224e-05,0.0,0 STARLINK-3614,1 51771U 22017D   23081.25438769 -.00001224  00000-0 -58799-4 0  9994,2 51771  53.2179 162.8540 0001965 121.4827 238.6357 15.08840697 60493,6917.878,95.438,541.103,538.384,0.0
51771.0,STARLINK-3614,PAYLOAD,2023-03-22 12:27:51,15.08841089,0.0001708,53.216,161.6632,114.2415,245.8756,4.7984e-05,4.76e-06,0.0,0 STARLINK-3614,1 51771U 22017D   23081.51934823  .00000476  00000-0  47984-4 0  9995,2 51771  53.2160 161.6632 0001708 114.2415 245.8756 15.08841089 59082,6917.877,95.437,540.924,538.56,0.0
51771.0,STARLINK-3614,PAYLOAD,2023-03-23 12:18:38,15.08847717,0.0001525,53.2149,157.2003,115.2282,244.8868,0.00028761,4.293e-05,0.0,0 STARLINK-3614,1 51771U 22017D   23082.51294618  .00004293  00000-0  28761-3 0  9999,2 51771  53.2149 157.2003 0001525 115.2282 244.8868 15.08847717 60687,6917.857,95.437,540.777,538.667,0.0
51771.0,STARLINK-3614,PAYLOAD,2023-03-23 21:50:57,15.08852201,0.0001403,53.2144,155.4166,108.9492,251.1652,0.00044204,6.756e-05,0.0,0 STARLINK-3614,1 51771U 22017D   23082.91038506  .00006756  00000-0  44204-3 0  9991,2 51771  53.2144 155.4166 0001403 108.9492 251.1652 15.08852201 59290,6917.843,95.437,540.679,538.738,0.0
51771.0,STARLINK-3614,PAYLOAD,2023-03-24 05:47:52,15.08885825,0.0001357,53.2143,153.9306,112.5472,247.5664,0.0015053,0.0002378,0.0,0 STARLINK-3614,1 51771U 22017D   23083.24157822  .00023780  00000-0  15053-2 0  9996,2 51771  53.2143 153.9306 0001357 112.5472 247.5664 15.08885825 60792,6917.74,95.435,540.544,538.667,0.0
51771.0,STARLINK-3614,PAYLOAD,2023-03-24 12:09:24,15.08901901,0.0002011,53.2142,152.7416,97.571,262.5511,0.0018168,0.00028794,0.0,0 STARLINK-3614,1 51771U 22017D   23083.50653003  .00028794  00000-0  18168-2 0  9997,2 51771  53.2142 152.7416 0002011  97.5710 262.5511 15.08901901 59380,6917.691,95.434,540.947,538.165,0.0
51771.0,STARLINK-3614,PAYLOAD,2023-03-24 21:41:42,15.08870763,0.0001936,53.2142,150.9567,74.7796,285.341,0.00026852,3.991e-05,0.0,0 STARLINK-3614,1 51771U 22017D   23083.90396702  .00003991  00000-0  26852-3 0  9993,2 51771  53.2142 150.9567 0001936  74.7796 285.3410 15.08870763 59442,6917.786,95.436,540.991,538.312,0.0
51771.0,STARLINK-3614,PAYLOAD,2023-03-25 05:38:38,15.0885061,0.0001717,53.2135,149.4697,82.8594,277.2593,-0.00038608,-6.429e-05,0.0,0 STARLINK-3614,1 51771U 22017D   23084.23516548 -.00006429  00000-0 -38608-3 0  9995,2 51771  53.2135 149.4697 0001717  82.8594 277.2593 15.08850610 60942,6917.848,95.437,540.901,538.525,0.0
51771.0,STARLINK-3614,PAYLOAD,2023-03-25 12:00:11,15.08811857,0.0001388,53.2138,148.2811,80.7362,279.3787,-0.0013543,-0.0002176,0.0,0 STARLINK-3614,1 51771U 22017D   23084.50013279 -.00021760  00000-0 -13543-2 0  9993,2 51771  53.2138 148.2811 0001388  80.7362 279.3787 15.08811857 60986,6917.966,95.439,540.792,538.871,0.0
51771.0,STARLINK-3614,PAYLOAD,2023-03-25 21:32:31,15.08802619,0.0001394,53.214,146.4962,74.9677,285.1469,-0.00020117,-3.485e-05,0.0,0 STARLINK-3614,1 51771U 22017D   23084.89758511 -.00003485  00000-0 -20117-3 0  9990,2 51771  53.2140 146.4962 0001394  74.9677 285.1469 15.08802619 59590,6917.995,95.44,540.824,538.895,0.0
51771.0,STARLINK-3614,PAYLOAD,2023-03-26 03:54:04,15.08809239,0.0001621,53.2141,145.3073,67.5551,292.5613,0.00030341,4.54e-05,0.0,0 STARLINK-3614,1 51771U 22017D   23085.16255231  .00004540  00000-0  30341-3 0  9993,2 51771  53.2141 145.3073 0001621  67.5551 292.5613 15.08809239 61089,6917.974,95.44,540.961,538.718,0.0
51771.0,STARLINK-3614,PAYLOAD,2023-03-26 10:15:37,15.08820692,0.0001723,53.2139,144.1161,75.0417,285.0765,0.0017368,0.00027447,0.0,0 STARLINK-3614,1 51771U 22017D   23085.42751900  .00027447  00000-0  17368-2 0  9990,2 51771  53.2139 144.1161 0001723  75.0417 285.0765 15.08820692 61125,6917.939,95.439,540.996,538.612,0.0
51771.0,STARLINK-3614,PAYLOAD,2023-03-26 21:23:19,15.08836998,0.0001844,53.2139,142.0357,69.7813,290.3377,0.0013949,0.0002198,0.0,0 STARLINK-3614,1 51771U 22017D   23085.89120328  .00021980  00000-0  13949-2 0  9992,2 51771  53.2139 142.0357 0001844  69.7813 290.3377 15.08836998 59742,6917.89,95.438,541.03,538.479,0.0
51771.0,STARLINK-3614,PAYLOAD,2023-03-27 03:44:52,15.08846655,0.0001888,53.214,140.8466,70.7248,289.3948,0.0013245,0.00020858,0.0,0 STARLINK-3614,1 51771U 22017D   23086.15616325  .00020858  00000-0  13245-2 0  9991,2 51771  53.2140 140.8466 0001888  70.7248 289.3948 15.08846655 61233,6917.86,95.437,541.031,538.419,0.0
51771.0,STARLINK-3614,PAYLOAD,2023-03-27 10:06:24,15.08854278,0.0001814,53.2142,139.6566,72.3352,287.7838,0.0012211,0.00019207,0.0,0 STARLINK-3614,1 51771U 22017D   23086.42112157  .00019207  00000-0  12211-2 0  9993,2 51771  53.2142 139.6566 0001814  72.3352 287.7838 15.08854278 59827,6917.837,95.437,540.957,538.447,0.0
51771.0,STARLINK-3614,PAYLOAD,2023-03-28 03:35:39,15.08851573,0.0001647,53.2143,136.3843,86.5309,273.5871,0.00096366,0.00015087,0.0,0 STARLINK-3614,1 51771U 22017D   23087.14976066  .00015087  00000-0  96366-3 0  9996,2 51771  53.2143 136.3843 0001647  86.5309 273.5871 15.08851573 61382,6917.845,95.437,540.849,538.571,0.0
51771.0,STARLINK-3614,PAYLOAD,2023-03-28 09:57:11,15.08843265,0.0001917,53.2157,135.197,86.8685,273.2526,0.00018492,2.656e-05,0.0,0 STARLINK-3614,1 51771U 22017D   23087.41472059  .00002656  00000-0  18492-3 0  9991,2 51771  53.2157 135.1970 0001917  86.8685 273.2526 15.08843265 61423,6917.87,95.437,541.062,538.409,0.0
51771.0,STARLINK-3614,PAYLOAD,2023-03-28 19:29:30,15.08846361,0.0001895,53.2156,133.4129,84.9817,275.1392,0.00020137,2.919e-05,0.0,0 STARLINK-3614,1 51771U 22017D   23087.81215937  .00002919  00000-0  20137-3 0  9996,2 51771  53.2156 133.4129 0001895  84.9817 275.1392 15.08846361 60038,6917.861,95.437,541.037,538.415,0.0
